{
  "norad_id": 45920,
  "name": "KOREASAT 116",
  "history": [
    {
      "epoch": "2026-03-28T21:42:38.640096Z",
      "apogee_km": 35789.74585784643,
      "perigee_km": 35781.801333811956,
      "latitude_deg": 0.018153362241955743,
      "longitude_deg": 116.18132066085859,
      "height_km": 35784.93164075871,
      "semi_major_axis_km": 42163.91059582919,
      "eccentricity": 9.421e-05,
      "inclination_deg": 0.0163,
      "raan_deg": 253.9265,
      "arg_perigee_deg": 99.4366,
      "mean_anomaly_deg": 274.7849,
      "mean_motion_rev_day": 1.00274715
    },
    {
      "epoch": "2026-03-29T01:36:18.264384Z",
      "apogee_km": 35789.755484163084,
      "perigee_km": 35781.8455294868,
      "latitude_deg": 0.02229698831669522,
      "longitude_deg": 116.18866702599445,
      "height_km": 35781.77765639378,
      "semi_major_axis_km": 42163.93750682495,
      "eccentricity": 9.38e-05,
      "inclination_deg": 0.0159,
      "raan_deg": 253.1129,
      "arg_perigee_deg": 101.5099,
      "mean_anomaly_deg": 332.1019,
      "mean_motion_rev_day": 1.00274619
    },
    {
      "epoch": "2026-03-30T01:33:51.557184Z",
      "apogee_km": 35789.84426604367,
      "perigee_km": 35782.0017508821,
      "latitude_deg": 0.030757688407416803,
      "longitude_deg": 116.19631560053274,
      "height_km": 35782.1376663395,
      "semi_major_axis_km": 42164.06000846289,
      "eccentricity": 9.3e-05,
      "inclination_deg": 0.0181,
      "raan_deg": 240.4362,
      "arg_perigee_deg": 120.5616,
      "mean_anomaly_deg": 326.1094,
      "mean_motion_rev_day": 1.00274182
    },
    {
      "epoch": "2026-03-30T02:37:38.614944Z",
      "apogee_km": 35789.85731908391,
      "perigee_km": 35782.002153450936,
      "latitude_deg": 0.026326064862419774,
      "longitude_deg": 116.19922194751564,
      "height_km": 35781.667333268655,
      "semi_major_axis_km": 42164.06673626742,
      "eccentricity": 9.315e-05,
      "inclination_deg": 0.018,
      "raan_deg": 240.8665,
      "arg_perigee_deg": 120.4647,
      "mean_anomaly_deg": 341.7661,
      "mean_motion_rev_day": 1.00274158
    },
    {
      "epoch": "2026-03-30T11:15:38.860992Z",
      "apogee_km": 35789.94701505766,
      "perigee_km": 35781.99823711094,
      "latitude_deg": -0.036266132913121946,
      "longitude_deg": 116.21488430434307,
      "height_km": 35786.78130362795,
      "semi_major_axis_km": 42164.109626084304,
      "eccentricity": 9.426e-05,
      "inclination_deg": 0.0197,
      "raan_deg": 235.5499,
      "arg_perigee_deg": 128.247,
      "mean_anomaly_deg": 109.1588,
      "mean_motion_rev_day": 1.00274005
    },
    {
      "epoch": "2026-03-30T20:23:20.682816Z",
      "apogee_km": 35789.95547571002,
      "perigee_km": 35782.07499565716,
      "latitude_deg": 0.021864584967981316,
      "longitude_deg": 116.19751866151671,
      "height_km": 35787.263520081455,
      "semi_major_axis_km": 42164.15223568359,
      "eccentricity": 9.345e-05,
      "inclination_deg": 0.0209,
      "raan_deg": 235.0775,
      "arg_perigee_deg": 131.6225,
      "mean_anomaly_deg": 243.5583,
      "mean_motion_rev_day": 1.00273853
    },
    {
      "epoch": "2026-03-31T20:20:56.544288Z",
      "apogee_km": 35791.53943497321,
      "perigee_km": 35782.549818250416,
      "latitude_deg": 0.034215577980651835,
      "longitude_deg": 116.21935338960675,
      "height_km": 35789.8102283853,
      "semi_major_axis_km": 42165.18162661181,
      "eccentricity": 0.0001066,
      "inclination_deg": 0.0219,
      "raan_deg": 211.8516,
      "arg_perigee_deg": 175.6452,
      "mean_anomaly_deg": 223.1684,
      "mean_motion_rev_day": 1.00270181
    },
    {
      "epoch": "2026-04-01T18:22:51.833280Z",
      "apogee_km": 35791.7770027238,
      "perigee_km": 35782.50064204287,
      "latitude_deg": 0.012510825146076744,
      "longitude_deg": 116.22516261290144,
      "height_km": 35791.225875920645,
      "semi_major_axis_km": 42165.27582238334,
      "eccentricity": 0.00011,
      "inclination_deg": 0.0201,
      "raan_deg": 211.3538,
      "arg_perigee_deg": 181.9708,
      "mean_anomaly_deg": 188.728,
      "mean_motion_rev_day": 1.00269845
    },
    {
      "epoch": "2026-04-02T18:33:19.906848Z",
      "apogee_km": 35792.00275230833,
      "perigee_km": 35782.473377543654,
      "latitude_deg": 0.013627547226627741,
      "longitude_deg": 116.22348450534889,
      "height_km": 35791.464303315675,
      "semi_major_axis_km": 42165.375064926,
      "eccentricity": 0.000113,
      "inclination_deg": 0.0176,
      "raan_deg": 210.2673,
      "arg_perigee_deg": 187.9723,
      "mean_anomaly_deg": 187.4239,
      "mean_motion_rev_day": 1.00269491
    },
    {
      "epoch": "2026-04-02T21:58:37.717248Z",
      "apogee_km": 35792.03574567273,
      "perigee_km": 35782.46841888996,
      "latitude_deg": 0.04082302468550097,
      "longitude_deg": 116.21376636528429,
      "height_km": 35789.23916938561,
      "semi_major_axis_km": 42165.38908228135,
      "eccentricity": 0.00011345,
      "inclination_deg": 0.0172,
      "raan_deg": 211.1151,
      "arg_perigee_deg": 187.6905,
      "mean_anomaly_deg": 238.3227,
      "mean_motion_rev_day": 1.00269441
    },
    {
      "epoch": "2026-04-03T20:13:34.668768Z",
      "apogee_km": 35792.24027908521,
      "perigee_km": 35782.45788631402,
      "latitude_deg": 0.02817315168520305,
      "longitude_deg": 116.21563004940788,
      "height_km": 35791.09189475509,
      "semi_major_axis_km": 42165.486082699616,
      "eccentricity": 0.000116,
      "inclination_deg": 0.0149,
      "raan_deg": 207.3477,
      "arg_perigee_deg": 194.8612,
      "mean_anomaly_deg": 209.5702,
      "mean_motion_rev_day": 1.00269095
    },
    {
      "epoch": "2026-04-04T06:16:38.567136Z",
      "apogee_km": 35792.29482308535,
      "perigee_km": 35782.50482874511,
      "latitude_deg": -0.010907177493586388,
      "longitude_deg": 116.2204330803427,
      "height_km": 35781.98448586242,
      "semi_major_axis_km": 42165.53682591524,
      "eccentricity": 0.00011609,
      "inclination_deg": 0.0137,
      "raan_deg": 203.924,
      "arg_perigee_deg": 200.5929,
      "mean_anomaly_deg": 358.4406,
      "mean_motion_rev_day": 1.00268914
    },
    {
      "epoch": "2026-04-05T13:52:12.629280Z",
      "apogee_km": 35791.80063277639,
      "perigee_km": 35781.70382840124,
      "latitude_deg": -0.020308019087058034,
      "longitude_deg": 116.22208434080116,
      "height_km": 35787.998196938635,
      "semi_major_axis_km": 42164.889230588815,
      "eccentricity": 0.00011973,
      "inclination_deg": 0.0111,
      "raan_deg": 186.2914,
      "arg_perigee_deg": 221.8367,
      "mean_anomaly_deg": 110.0095,
      "mean_motion_rev_day": 1.00271224
    },
    {
      "epoch": "2026-04-05T20:08:32.681760Z",
      "apogee_km": 35791.918161750255,
      "perigee_km": 35781.672083244484,
      "latitude_deg": 0.02492899890977839,
      "longitude_deg": 116.20290625843583,
      "height_km": 35790.96958510551,
      "semi_major_axis_km": 42164.93212249737,
      "eccentricity": 0.0001215,
      "inclination_deg": 0.0114,
      "raan_deg": 180.8592,
      "arg_perigee_deg": 227.7605,
      "mean_anomaly_deg": 203.8588,
      "mean_motion_rev_day": 1.00271071
    },
    {
      "epoch": "2026-04-06T05:35:38.802336Z",
      "apogee_km": 35791.992623970655,
      "perigee_km": 35781.728820225144,
      "latitude_deg": -0.010019140571714139,
      "longitude_deg": 116.20367667268403,
      "height_km": 35781.36752113027,
      "semi_major_axis_km": 42164.997722097905,
      "eccentricity": 0.00012171,
      "inclination_deg": 0.0113,
      "raan_deg": 174.5088,
      "arg_perigee_deg": 234.6369,
      "mean_anomaly_deg": 345.4954,
      "mean_motion_rev_day": 1.00270837
    },
    {
      "epoch": "2026-04-07T13:12:57.062880Z",
      "apogee_km": 35791.45393724768,
      "perigee_km": 35782.66839655762,
      "latitude_deg": -0.039925687245917295,
      "longitude_deg": 116.21513474756831,
      "height_km": 35786.599931334655,
      "semi_major_axis_km": 42165.19816690266,
      "eccentricity": 0.00010418,
      "inclination_deg": 0.0279,
      "raan_deg": 268.0655,
      "arg_perigee_deg": 151.8925,
      "mean_anomaly_deg": 90.3049,
      "mean_motion_rev_day": 1.00270122
    },
    {
      "epoch": "2026-04-07T20:57:33.252192Z",
      "apogee_km": 35791.55474643231,
      "perigee_km": 35782.649447934986,
      "latitude_deg": 0.01012014692019545,
      "longitude_deg": 116.195880043477,
      "height_km": 35790.57419078427,
      "semi_major_axis_km": 42165.23909718365,
      "eccentricity": 0.0001056,
      "inclination_deg": 0.0271,
      "raan_deg": 268.024,
      "arg_perigee_deg": 152.3277,
      "mean_anomaly_deg": 206.3783,
      "mean_motion_rev_day": 1.00269976
    },
    {
      "epoch": "2026-04-08T06:19:36.846624Z",
      "apogee_km": 35791.730659844914,
      "perigee_km": 35782.625481708536,
      "latitude_deg": 0.015567486853671675,
      "longitude_deg": 116.19517965080001,
      "height_km": 35782.256226046586,
      "semi_major_axis_km": 42165.31507077673,
      "eccentricity": 0.00010797,
      "inclination_deg": 0.0261,
      "raan_deg": 267.9264,
      "arg_perigee_deg": 154.3738,
      "mean_anomaly_deg": 345.3266,
      "mean_motion_rev_day": 1.00269705
    },
    {
      "epoch": "2026-04-09T20:28:38.645184Z",
      "apogee_km": 35792.118882261595,
      "perigee_km": 35782.76655667982,
      "latitude_deg": 0.007468182900119993,
      "longitude_deg": 116.1798539978427,
      "height_km": 35791.424326399756,
      "semi_major_axis_km": 42165.57971947071,
      "eccentricity": 0.0001109,
      "inclination_deg": 0.0222,
      "raan_deg": 267.0594,
      "arg_perigee_deg": 158.5491,
      "mean_anomaly_deg": 195.8285,
      "mean_motion_rev_day": 1.00268761
    }
  ]
}